{
  "type": "FeatureCollection",
  "features": [
    {
      "type": "Feature",
      "properties": {
        "norad_id": 38857,
        "name": "GSAT0103 (GALILEO-FM3)",
        "group": "gnss",
        "lat": 24.07039824600047,
        "lon": -91.2079477347879,
        "alt_km": 23223.14430188506,
        "timestamp": "2025-12-17T07:00:47.144394+00:00",
        "meta_object_name": "GSAT0103 (GALILEO-FM3)",
        "meta_object_id": "2012-055A",
        "meta_epoch": "2025-12-13T12:39:44.093088",
        "meta_mean_motion": 1.70473367,
        "meta_eccentricity": 0.00026827,
        "meta_inclination": 55.6929,
        "meta_ra_of_asc_node": 106.6448,
        "meta_arg_of_pericenter": 268.8486,
        "meta_mean_anomaly": 91.0883,
        "meta_ephemeris_type": 0,
        "meta_classification_type": "U",
        "meta_norad_cat_id": 38857,
        "meta_element_set_no": 999,
        "meta_rev_at_epoch": 8184,
        "meta_bstar": 0,
        "meta_mean_motion_dot": 1e-08,
        "meta_mean_motion_ddot": 0,
        "tle_line1": "1 38857U 12055A   25347.52759367  .00000001  00000+0  00000+0 0  9998",
        "tle_line2": "2 38857  55.6929 106.6448 0002682 268.8486  91.0883  1.70473367 81846"
      },
      "geometry": {
        "type": "Point",
        "coordinates": [
          -91.2079477347879,
          24.07039824600047
        ]
      }
    },
    {
      "type": "Feature",
      "properties": {
        "norad_id": 38953,
        "name": "BEIDOU-2 G6 (C02)",
        "group": "gnss",
        "lat": -1.3641147557281041,
        "lon": -84.79890912852423,
        "alt_km": 35787.885478351745,
        "timestamp": "2025-12-17T07:00:47.144408+00:00",
        "meta_object_name": "BEIDOU-2 G6 (C02)",
        "meta_object_id": "2012-059A",
        "meta_epoch": "2025-12-16T18:53:36.756672",
        "meta_mean_motion": 1.00269491,
        "meta_eccentricity": 0.00081133,
        "meta_inclination": 3.9595,
        "meta_ra_of_asc_node": 75.4664,
        "meta_arg_of_pericenter": 291.2545,
        "meta_mean_anomaly": 86.335,
        "meta_ephemeris_type": 0,
        "meta_classification_type": "U",
        "meta_norad_cat_id": 38953,
        "meta_element_set_no": 999,
        "meta_rev_at_epoch": 4808,
        "meta_bstar": 0,
        "meta_mean_motion_dot": -1.54e-06,
        "meta_mean_motion_ddot": 0,
        "tle_line1": "1 38953U 12059A   25350.78723098 -.00000154  00000+0  00000+0 0  9993",
        "tle_line2": "2 38953   3.9595  75.4664 0008113 291.2545  86.3350  1.00269491 48081"
      },
      "geometry": {
        "type": "Point",
        "coordinates": [
          -84.79890912852423,
          -1.3641147557281041
        ]
      }
    },
    {
      "type": "Feature",
      "properties": {
        "norad_id": 38977,
        "name": "LUCH 5B (SDCM/PRN 125)",
        "group": "gnss",
        "lat": 8.424123775238355,
        "lon": 175.37300055354407,
        "alt_km": 35775.47076427661,
        "timestamp": "2025-12-17T07:00:47.144421+00:00",
        "meta_object_name": "LUCH 5B (SDCM/PRN 125)",
        "meta_object_id": "2012-061A",
        "meta_epoch": "2025-12-16T09:51:19.957824",
        "meta_mean_motion": 1.00272446,
        "meta_eccentricity": 0.00068018,
        "meta_inclination": 10.0893,
        "meta_ra_of_asc_node": 51.6712,
        "meta_arg_of_pericenter": 194.1658,
        "meta_mean_anomaly": 330.9636,
        "meta_ephemeris_type": 0,
        "meta_classification_type": "U",
        "meta_norad_cat_id": 38977,
        "meta_element_set_no": 999,
        "meta_rev_at_epoch": 4777,
        "meta_bstar": 0,
        "meta_mean_motion_dot": -1.23e-06,
        "meta_mean_motion_ddot": 0,
        "tle_line1": "1 38977U 12061A   25350.41064766 -.00000123  00000+0  00000+0 0  9998",
        "tle_line2": "2 38977  10.0893  51.6712 0006801 194.1658 330.9636  1.00272446 47779"
      },
      "geometry": {
        "type": "Point",
        "coordinates": [
          175.37300055354407,
          8.424123775238355
        ]
      }
    },
    {
      "type": "Feature",
      "properties": {
        "norad_id": 39155,
        "name": "COSMOS 2485 (747)",
        "group": "gnss",
        "lat": -10.154802299252722,
        "lon": 75.00436907390504,
        "alt_km": 19162.197851857614,
        "timestamp": "2025-12-17T07:00:47.144435+00:00",
        "meta_object_name": "COSMOS 2485 (747)",
        "meta_object_id": "2013-019A",
        "meta_epoch": "2025-12-16T08:50:22.354656",
        "meta_mean_motion": 2.13103052,
        "meta_eccentricity": 0.00246679,
        "meta_inclination": 65.3158,
        "meta_ra_of_asc_node": 79.7449,
        "meta_arg_of_pericenter": 229.7889,
        "meta_mean_anomaly": 130.0094,
        "meta_ephemeris_type": 0,
        "meta_classification_type": "U",
        "meta_norad_cat_id": 39155,
        "meta_element_set_no": 999,
        "meta_rev_at_epoch": 9838,
        "meta_bstar": 0,
        "meta_mean_motion_dot": -5.4e-07,
        "meta_mean_motion_ddot": 0,
        "tle_line1": "1 39155U 13019A   25350.36831429 -.00000054  00000+0  00000+0 0  9996",
        "tle_line2": "2 39155  65.3158  79.7449 0024667 229.7889 130.0094  2.13103052 98385"
      },
      "geometry": {
        "type": "Point",
        "coordinates": [
          75.00436907390504,
          -10.154802299252722
        ]
      }
    },
    {
      "type": "Feature",
      "properties": {
        "norad_id": 39166,
        "name": "GPS BIIF-4  (PRN 27)",
        "group": "gnss",
        "lat": 48.4641223708862,
        "lon": -30.48699941105941,
        "alt_km": 19828.26235880298,
        "timestamp": "2025-12-17T07:00:47.144447+00:00",
        "meta_object_name": "GPS BIIF-4  (PRN 27)",
        "meta_object_id": "2013-023A",
        "meta_epoch": "2025-12-15T04:59:33.811872",
        "meta_mean_motion": 2.00564736,
        "meta_eccentricity": 0.01378529,
        "meta_inclination": 54.65,
        "meta_ra_of_asc_node": 276.4679,
        "meta_arg_of_pericenter": 48.4851,
        "meta_mean_anomaly": 312.7012,
        "meta_ephemeris_type": 0,
        "meta_classification_type": "U",
        "meta_norad_cat_id": 39166,
        "meta_element_set_no": 999,
        "meta_rev_at_epoch": 9219,
        "meta_bstar": 0,
        "meta_mean_motion_dot": -6.8e-07,
        "meta_mean_motion_ddot": 0,
        "tle_line1": "1 39166U 13023A   25349.20803023 -.00000068  00000+0  00000+0 0  9998",
        "tle_line2": "2 39166  54.6500 276.4679 0137852  48.4851 312.7012  2.00564736 92194"
      },
      "geometry": {
        "type": "Point",
        "coordinates": [
          -30.48699941105941,
          48.4641223708862
        ]
      }
    },
    {
      "type": "Feature",
      "properties": {
        "norad_id": 39199,
        "name": "IRNSS-1A",
        "group": "gnss",
        "lat": 0.19949069217687398,
        "lon": -113.79111751052136,
        "alt_km": 35697.91460835483,
        "timestamp": "2025-12-17T07:00:47.144476+00:00",
        "meta_object_name": "IRNSS-1A",
        "meta_object_id": "2013-034A",
        "meta_epoch": "2025-12-16T18:45:30.034368",
        "meta_mean_motion": 1.00271882,
        "meta_eccentricity": 0.0023621,
        "meta_inclination": 35.3115,
        "meta_ra_of_asc_node": 66.4956,
        "meta_arg_of_pericenter": 207.6795,
        "meta_mean_anomaly": 147.7415,
        "meta_ephemeris_type": 0,
        "meta_classification_type": "U",
        "meta_norad_cat_id": 39199,
        "meta_element_set_no": 999,
        "meta_rev_at_epoch": 4553,
        "meta_bstar": 0,
        "meta_mean_motion_dot": 6.3e-07,
        "meta_mean_motion_ddot": 0,
        "tle_line1": "1 39199U 13034A   25350.78159762  .00000063  00000+0  00000+0 0  9999",
        "tle_line2": "2 39199  35.3115  66.4956 0023621 207.6795 147.7415  1.00271882 45532"
      },
      "geometry": {
        "type": "Point",
        "coordinates": [
          -113.79111751052136,
          0.19949069217687398
        ]
      }
    },
    {
      "type": "Feature",
      "properties": {
        "norad_id": 39533,
        "name": "GPS BIIF-5  (PRN 30)",
        "group": "gnss",
        "lat": 48.46340749189834,
        "lon": -146.94511029069076,
        "alt_km": 20370.6592055499,
        "timestamp": "2025-12-17T07:00:47.144491+00:00",
        "meta_object_name": "GPS BIIF-5  (PRN 30)",
        "meta_object_id": "2014-008A",
        "meta_epoch": "2025-12-16T04:46:33.160224",
        "meta_mean_motion": 2.00574644,
        "meta_eccentricity": 0.00793151,
        "meta_inclination": 53.6318,
        "meta_ra_of_asc_node": 156.7835,
        "meta_arg_of_pericenter": 226.5644,
        "meta_mean_anomaly": 132.7818,
        "meta_ephemeris_type": 0,
        "meta_classification_type": "U",
        "meta_norad_cat_id": 39533,
        "meta_element_set_no": 999,
        "meta_rev_at_epoch": 8601,
        "meta_bstar": 0,
        "meta_mean_motion_dot": 8.7e-07,
        "meta_mean_motion_ddot": 0,
        "tle_line1": "1 39533U 14008A   25350.19899491  .00000087  00000+0  00000+0 0  9994",
        "tle_line2": "2 39533  53.6318 156.7835 0079315 226.5644 132.7818  2.00574644 86017"
      },
      "geometry": {
        "type": "Point",
        "coordinates": [
          -146.94511029069076,
          48.46340749189834
        ]
      }
    }
  ]
}